{
  "type": "FeatureCollection",
  "features": [
    {
      "type": "Feature",
      "properties": {
        "norad_id": 32393,
        "name": "COSMOS 2434 (721)",
        "group": "gnss",
        "lat": -37.43677721830793,
        "lon": 39.894971215865716,
        "alt_km": 19144.338256024956,
        "timestamp": "2025-12-10T16:57:11.877268+00:00",
        "meta_object_name": "COSMOS 2434 (721)",
        "meta_object_id": "2007-065A",
        "meta_epoch": "2025-12-09T05:35:23.361792",
        "meta_mean_motion": 2.13101149,
        "meta_eccentricity": 0.00042885,
        "meta_inclination": 64.3147,
        "meta_ra_of_asc_node": 198.3216,
        "meta_arg_of_pericenter": 70.9906,
        "meta_mean_anomaly": 101.028,
        "meta_ephemeris_type": 0,
        "meta_classification_type": "U",
        "meta_norad_cat_id": 32393,
        "meta_element_set_no": 999,
        "meta_rev_at_epoch": 13972,
        "meta_bstar": 0,
        "meta_mean_motion_dot": 4.5e-07,
        "meta_mean_motion_ddot": 0,
        "tle_line1": "1 32393U 07065A   25343.23290928  .00000045  00000+0  00000+0 0  9997",
        "tle_line2": "2 32393  64.3147 198.3216 0004288  70.9906 101.0280  2.13101149139726"
      },
      "geometry": {
        "type": "Point",
        "coordinates": [
          39.894971215865716,
          -37.43677721830793
        ]
      }
    },
    {
      "type": "Feature",
      "properties": {
        "norad_id": 32395,
        "name": "COSMOS 2436 (723)",
        "group": "gnss",
        "lat": -4.157231673407274,
        "lon": -163.65811826325566,
        "alt_km": 19087.149768745126,
        "timestamp": "2025-12-10T16:57:11.877280+00:00",
        "meta_object_name": "COSMOS 2436 (723)",
        "meta_object_id": "2007-065C",
        "meta_epoch": "2025-12-08T02:01:11.627904",
        "meta_mean_motion": 2.13100022,
        "meta_eccentricity": 0.00177472,
        "meta_inclination": 64.3236,
        "meta_ra_of_asc_node": 198.4308,
        "meta_arg_of_pericenter": 9.2257,
        "meta_mean_anomaly": 134.6131,
        "meta_ephemeris_type": 0,
        "meta_classification_type": "U",
        "meta_norad_cat_id": 32395,
        "meta_element_set_no": 999,
        "meta_rev_at_epoch": 13965,
        "meta_bstar": 0,
        "meta_mean_motion_dot": 5.1e-07,
        "meta_mean_motion_ddot": 0,
        "tle_line1": "1 32395U 07065C   25342.08416236  .00000051  00000+0  00000+0 0  9990",
        "tle_line2": "2 32395  64.3236 198.4308 0017747   9.2257 134.6131  2.13100022139656"
      },
      "geometry": {
        "type": "Point",
        "coordinates": [
          -163.65811826325566,
          -4.157231673407274
        ]
      }
    },
    {
      "type": "Feature",
      "properties": {
        "norad_id": 32711,
        "name": "GPS BIIRM-6 (PRN 07)",
        "group": "gnss",
        "lat": 15.341877079439545,
        "lon": 168.753078645327,
        "alt_km": 20548.145470230247,
        "timestamp": "2025-12-10T16:57:11.877292+00:00",
        "meta_object_name": "GPS BIIRM-6 (PRN 07)",
        "meta_object_id": "2008-012A",
        "meta_epoch": "2025-12-09T16:22:36.528672",
        "meta_mean_motion": 2.00565456,
        "meta_eccentricity": 0.02023147,
        "meta_inclination": 54.4767,
        "meta_ra_of_asc_node": 157.4949,
        "meta_arg_of_pericenter": 244.9126,
        "meta_mean_anomaly": 112.9814,
        "meta_ephemeris_type": 0,
        "meta_classification_type": "U",
        "meta_norad_cat_id": 32711,
        "meta_element_set_no": 999,
        "meta_rev_at_epoch": 12995,
        "meta_bstar": 0,
        "meta_mean_motion_dot": 6.8e-07,
        "meta_mean_motion_ddot": 0,
        "tle_line1": "1 32711U 08012A   25343.68236723  .00000068  00000+0  00000+0 0  9991",
        "tle_line2": "2 32711  54.4767 157.4949 0202314 244.9126 112.9814  2.00565456129953"
      },
      "geometry": {
        "type": "Point",
        "coordinates": [
          168.753078645327,
          15.341877079439545
        ]
      }
    },
    {
      "type": "Feature",
      "properties": {
        "norad_id": 35752,
        "name": "GPS BIIRM-8 (PRN 05)",
        "group": "gnss",
        "lat": 29.840001415522114,
        "lon": 57.55857805138749,
        "alt_km": 20080.585243891815,
        "timestamp": "2025-12-10T16:57:11.877304+00:00",
        "meta_object_name": "GPS BIIRM-8 (PRN 05)",
        "meta_object_id": "2009-043A",
        "meta_epoch": "2025-12-10T05:14:27.337344",
        "meta_mean_motion": 2.00565787,
        "meta_eccentricity": 0.0051875,
        "meta_inclination": 56.0893,
        "meta_ra_of_asc_node": 34.8825,
        "meta_arg_of_pericenter": 81.9555,
        "meta_mean_anomaly": 322.9738,
        "meta_ephemeris_type": 0,
        "meta_classification_type": "U",
        "meta_norad_cat_id": 35752,
        "meta_element_set_no": 999,
        "meta_rev_at_epoch": 11957,
        "meta_bstar": 0,
        "meta_mean_motion_dot": -9.1e-07,
        "meta_mean_motion_ddot": 0,
        "tle_line1": "1 35752U 09043A   25344.21837196 -.00000091  00000+0  00000+0 0  9992",
        "tle_line2": "2 35752  56.0893  34.8825 0051875  81.9555 322.9738  2.00565787119571"
      },
      "geometry": {
        "type": "Point",
        "coordinates": [
          57.55857805138749,
          29.840001415522114
        ]
      }
    },
    {
      "type": "Feature",
      "properties": {
        "norad_id": 36111,
        "name": "COSMOS 2456 (730)",
        "group": "gnss",
        "lat": 17.594204657479807,
        "lon": 85.94962041600773,
        "alt_km": 19126.85868988972,
        "timestamp": "2025-12-10T16:57:11.877317+00:00",
        "meta_object_name": "COSMOS 2456 (730)",
        "meta_object_id": "2009-070A",
        "meta_epoch": "2025-12-09T05:47:54.858624",
        "meta_mean_motion": 2.13103359,
        "meta_eccentricity": 0.00028383,
        "meta_inclination": 64.8981,
        "meta_ra_of_asc_node": 77.4578,
        "meta_arg_of_pericenter": 298.5783,
        "meta_mean_anomaly": 37.1692,
        "meta_ephemeris_type": 0,
        "meta_classification_type": "U",
        "meta_norad_cat_id": 36111,
        "meta_element_set_no": 999,
        "meta_rev_at_epoch": 12437,
        "meta_bstar": 0,
        "meta_mean_motion_dot": -1.7e-07,
        "meta_mean_motion_ddot": 0,
        "tle_line1": "1 36111U 09070A   25343.24160716 -.00000017  00000+0  00000+0 0  9999",
        "tle_line2": "2 36111  64.8981  77.4578 0002838 298.5783  37.1692  2.13103359124373"
      },
      "geometry": {
        "type": "Point",
        "coordinates": [
          85.94962041600773,
          17.594204657479807
        ]
      }
    },
    {
      "type": "Feature",
      "properties": {
        "norad_id": 36112,
        "name": "COSMOS 2457 (733)",
        "group": "gnss",
        "lat": 28.087010864051393,
        "lon": -117.21340292671867,
        "alt_km": 19114.519400211662,
        "timestamp": "2025-12-10T16:57:11.877332+00:00",
        "meta_object_name": "COSMOS 2457 (733)",
        "meta_object_id": "2009-070B",
        "meta_epoch": "2025-12-08T14:21:11.818944",
        "meta_mean_motion": 2.13100771,
        "meta_eccentricity": 0.0004866,
        "meta_inclination": 64.883,
        "meta_ra_of_asc_node": 77.3275,
        "meta_arg_of_pericenter": 155.8932,
        "meta_mean_anomaly": 175.3227,
        "meta_ephemeris_type": 0,
        "meta_classification_type": "U",
        "meta_norad_cat_id": 36112,
        "meta_element_set_no": 999,
        "meta_rev_at_epoch": 12436,
        "meta_bstar": 0,
        "meta_mean_motion_dot": -1.5e-07,
        "meta_mean_motion_ddot": 0,
        "tle_line1": "1 36112U 09070B   25342.59805346 -.00000015  00000+0  00000+0 0  9990",
        "tle_line2": "2 36112  64.8830  77.3275 0004866 155.8932 175.3227  2.13100771124367"
      },
      "geometry": {
        "type": "Point",
        "coordinates": [
          -117.21340292671867,
          28.087010864051393
        ]
      }
    },
    {
      "type": "Feature",
      "properties": {
        "norad_id": 36402,
        "name": "COSMOS 2460 (732)",
        "group": "gnss",
        "lat": 28.727061845240684,
        "lon": 126.38245457228969,
        "alt_km": 19130.329727983717,
        "timestamp": "2025-12-10T16:57:11.877344+00:00",
        "meta_object_name": "COSMOS 2460 (732)",
        "meta_object_id": "2010-007C",
        "meta_epoch": "2025-12-09T19:21:37.643616",
        "meta_mean_motion": 2.13105924,
        "meta_eccentricity": 0.00027883,
        "meta_inclination": 65.5316,
        "meta_ra_of_asc_node": 320.8726,
        "meta_arg_of_pericenter": 272.035,
        "meta_mean_anomaly": 265.828,
        "meta_ephemeris_type": 0,
        "meta_classification_type": "U",
        "meta_norad_cat_id": 36402,
        "meta_element_set_no": 999,
        "meta_rev_at_epoch": 12269,
        "meta_bstar": 0,
        "meta_mean_motion_dot": -4.9e-07,
        "meta_mean_motion_ddot": 0,
        "tle_line1": "1 36402U 10007C   25343.80668569 -.00000049  00000+0  00000+0 0  9990",
        "tle_line2": "2 36402  65.5316 320.8726 0002788 272.0350 265.8280  2.13105924122693"
      },
      "geometry": {
        "type": "Point",
        "coordinates": [
          126.38245457228969,
          28.727061845240684
        ]
      }
    }
  ]
}